[
  {
    "CCSDS_OMM_VERS": "3.0",
    "COMMENT": "GENERATED VIA SPACE-TRACK.ORG API",
    "CREATION_DATE": "2026-02-19T17:59:09",
    "ORIGINATOR": "18 SPCS",
    "OBJECT_NAME": "CZ-6A DEB",
    "OBJECT_ID": "2024-140ADG",
    "CENTER_NAME": "EARTH",
    "REF_FRAME": "TEME",
    "TIME_SYSTEM": "UTC",
    "MEAN_ELEMENT_THEORY": "SGP4",
    "EPOCH": "2026-02-19T15:18:27.590112",
    "MEAN_MOTION": "14.15522066",
    "ECCENTRICITY": "0.00733684",
    "INCLINATION": "89.0538",
    "RA_OF_ASC_NODE": "292.1153",
    "ARG_OF_PERICENTER": "224.5869",
    "MEAN_ANOMALY": "134.9403",
    "EPHEMERIS_TYPE": "0",
    "CLASSIFICATION_TYPE": "U",
    "NORAD_CAT_ID": "61840",
    "ELEMENT_SET_NO": "999",
    "REV_AT_EPOCH": "7664",
    "BSTAR": "0.00083468562000",
    "MEAN_MOTION_DOT": "0.00001687",
    "MEAN_MOTION_DDOT": "0.0000000000000",
    "SEMIMAJOR_AXIS": "7218.674",
    "PERIOD": "101.729",
    "APOAPSIS": "893.501",
    "PERIAPSIS": "787.576",
    "OBJECT_TYPE": "DEBRIS",
    "RCS_SIZE": "SMALL",
    "COUNTRY_CODE": "PRC",
    "LAUNCH_DATE": "2024-08-06",
    "SITE": "TSC",
    "DECAY_DATE": null,
    "FILE": "5039972",
    "GP_ID": "313182219",
    "TLE_LINE0": "0 CZ-6A DEB",
    "TLE_LINE1": "1 61840U 24140ADG 26050.63781933  .00001687  00000-0  83469-3 0  9998",
    "TLE_LINE2": "2 61840  89.0538 292.1153 0073368 224.5869 134.9403 14.15522066 76649"
  },
  {
    "CCSDS_OMM_VERS": "3.0",
    "COMMENT": "GENERATED VIA SPACE-TRACK.ORG API",
    "CREATION_DATE": "2026-02-19T17:59:09",
    "ORIGINATOR": "18 SPCS",
    "OBJECT_NAME": "CZ-6A DEB",
    "OBJECT_ID": "2024-140ACR",
    "CENTER_NAME": "EARTH",
    "REF_FRAME": "TEME",
    "TIME_SYSTEM": "UTC",
    "MEAN_ELEMENT_THEORY": "SGP4",
    "EPOCH": "2026-02-19T15:18:21.562848",
    "MEAN_MOTION": "14.24636467",
    "ECCENTRICITY": "0.00385495",
    "INCLINATION": "89.0053",
    "RA_OF_ASC_NODE": "288.1379",
    "ARG_OF_PERICENTER": "209.6255",
    "MEAN_ANOMALY": "150.2754",
    "EPHEMERIS_TYPE": "0",
    "CLASSIFICATION_TYPE": "U",
    "NORAD_CAT_ID": "61825",
    "ELEMENT_SET_NO": "999",
    "REV_AT_EPOCH": "7486",
    "BSTAR": "0.00092089010000",
    "MEAN_MOTION_DOT": "0.00002169",
    "MEAN_MOTION_DDOT": "0.0000000000000",
    "SEMIMAJOR_AXIS": "7187.852",
    "PERIOD": "101.078",
    "APOAPSIS": "837.426",
    "PERIAPSIS": "782.008",
    "OBJECT_TYPE": "DEBRIS",
    "RCS_SIZE": "SMALL",
    "COUNTRY_CODE": "PRC",
    "LAUNCH_DATE": "2024-08-06",
    "SITE": "TSC",
    "DECAY_DATE": null,
    "FILE": "5039972",
    "GP_ID": "313182212",
    "TLE_LINE0": "0 CZ-6A DEB",
    "TLE_LINE1": "1 61825U 24140ACR 26050.63774957  .00002169  00000-0  92089-3 0  9993",
    "TLE_LINE2": "2 61825  89.0053 288.1379 0038550 209.6255 150.2754 14.24636467 74869"
  },
  {
    "CCSDS_OMM_VERS": "3.0",
    "COMMENT": "GENERATED VIA SPACE-TRACK.ORG API",
    "CREATION_DATE": "2026-02-19T17:59:09",
    "ORIGINATOR": "18 SPCS",
    "OBJECT_NAME": "CZ-6A DEB",
    "OBJECT_ID": "2024-140XX",
    "CENTER_NAME": "EARTH",
    "REF_FRAME": "TEME",
    "TIME_SYSTEM": "UTC",
    "MEAN_ELEMENT_THEORY": "SGP4",
    "EPOCH": "2026-02-19T15:18:20.450016",
    "MEAN_MOTION": "14.02577814",
    "ECCENTRICITY": "0.01275780",
    "INCLINATION": "88.9986",
    "RA_OF_ASC_NODE": "289.8509",
    "ARG_OF_PERICENTER": "273.5794",
    "MEAN_ANOMALY": "85.0803",
    "EPHEMERIS_TYPE": "0",
    "CLASSIFICATION_TYPE": "U",
    "NORAD_CAT_ID": "61406",
    "ELEMENT_SET_NO": "999",
    "REV_AT_EPOCH": "7391",
    "BSTAR": "0.00036910299000",
    "MEAN_MOTION_DOT": "0.00000623",
    "MEAN_MOTION_DDOT": "0.0000000000000",
    "SEMIMAJOR_AXIS": "7263.019",
    "PERIOD": "102.668",
    "APOAPSIS": "977.544",
    "PERIAPSIS": "792.224",
    "OBJECT_TYPE": "DEBRIS",
    "RCS_SIZE": "SMALL",
    "COUNTRY_CODE": "PRC",
    "LAUNCH_DATE": "2024-08-06",
    "SITE": "TSC",
    "DECAY_DATE": null,
    "FILE": "5039972",
    "GP_ID": "313182038",
    "TLE_LINE0": "0 CZ-6A DEB",
    "TLE_LINE1": "1 61406U 24140XX  26050.63773669  .00000623  00000-0  36910-3 0  9991",
    "TLE_LINE2": "2 61406  88.9986 289.8509 0127578 273.5794  85.0803 14.02577814 73918"
  },
  {
    "CCSDS_OMM_VERS": "3.0",
    "COMMENT": "GENERATED VIA SPACE-TRACK.ORG API",
    "CREATION_DATE": "2026-02-19T17:59:09",
    "ORIGINATOR": "18 SPCS",
    "OBJECT_NAME": "CZ-6A DEB",
    "OBJECT_ID": "2024-140VZ",
    "CENTER_NAME": "EARTH",
    "REF_FRAME": "TEME",
    "TIME_SYSTEM": "UTC",
    "MEAN_ELEMENT_THEORY": "SGP4",
    "EPOCH": "2026-02-19T15:18:02.231712",
    "MEAN_MOTION": "14.19476678",
    "ECCENTRICITY": "0.00484785",
    "INCLINATION": "89.0157",
    "RA_OF_ASC_NODE": "289.1904",
    "ARG_OF_PERICENTER": "210.8982",
    "MEAN_ANOMALY": "148.9354",
    "EPHEMERIS_TYPE": "0",
    "CLASSIFICATION_TYPE": "U",
    "NORAD_CAT_ID": "61360",
    "ELEMENT_SET_NO": "999",
    "REV_AT_EPOCH": "7573",
    "BSTAR": "0.00037682133000",
    "MEAN_MOTION_DOT": "0.00000816",
    "MEAN_MOTION_DDOT": "0.0000000000000",
    "SEMIMAJOR_AXIS": "7205.260",
    "PERIOD": "101.446",
    "APOAPSIS": "862.055",
    "PERIAPSIS": "792.195",
    "OBJECT_TYPE": "DEBRIS",
    "RCS_SIZE": "SMALL",
    "COUNTRY_CODE": "PRC",
    "LAUNCH_DATE": "2024-08-06",
    "SITE": "TSC",
    "DECAY_DATE": null,
    "FILE": "5039972",
    "GP_ID": "313181521",
    "TLE_LINE0": "0 CZ-6A DEB",
    "TLE_LINE1": "1 61360U 24140VZ  26050.63752583  .00000816  00000-0  37682-3 0  9993",
    "TLE_LINE2": "2 61360  89.0157 289.1904 0048479 210.8982 148.9354 14.19476678 75732"
  },
  {
    "CCSDS_OMM_VERS": "3.0",
    "COMMENT": "GENERATED VIA SPACE-TRACK.ORG API",
    "CREATION_DATE": "2026-02-19T17:59:09",
    "ORIGINATOR": "18 SPCS",
    "OBJECT_NAME": "CZ-6A DEB",
    "OBJECT_ID": "2024-140QH",
    "CENTER_NAME": "EARTH",
    "REF_FRAME": "TEME",
    "TIME_SYSTEM": "UTC",
    "MEAN_ELEMENT_THEORY": "SGP4",
    "EPOCH": "2026-02-19T15:18:02.019168",
    "MEAN_MOTION": "14.03960206",
    "ECCENTRICITY": "0.01154423",
    "INCLINATION": "88.9556",
    "RA_OF_ASC_NODE": "286.8289",
    "ARG_OF_PERICENTER": "258.3834",
    "MEAN_ANOMALY": "100.4371",
    "EPHEMERIS_TYPE": "0",
    "CLASSIFICATION_TYPE": "U",
    "NORAD_CAT_ID": "61139",
    "ELEMENT_SET_NO": "999",
    "REV_AT_EPOCH": "7664",
    "BSTAR": "0.00051425487000",
    "MEAN_MOTION_DOT": "0.00000874",
    "MEAN_MOTION_DDOT": "0.0000000000000",
    "SEMIMAJOR_AXIS": "7258.251",
    "PERIOD": "102.567",
    "APOAPSIS": "963.907",
    "PERIAPSIS": "796.325",
    "OBJECT_TYPE": "DEBRIS",
    "RCS_SIZE": "SMALL",
    "COUNTRY_CODE": "PRC",
    "LAUNCH_DATE": "2024-08-06",
    "SITE": "TSC",
    "DECAY_DATE": null,
    "FILE": "5039972",
    "GP_ID": "313181931",
    "TLE_LINE0": "0 CZ-6A DEB",
    "TLE_LINE1": "1 61139U 24140QH  26050.63752337  .00000874  00000-0  51425-3 0  9999",
    "TLE_LINE2": "2 61139  88.9556 286.8289 0115442 258.3834 100.4371 14.03960206 76646"
  },
  {
    "CCSDS_OMM_VERS": "3.0",
    "COMMENT": "GENERATED VIA SPACE-TRACK.ORG API",
    "CREATION_DATE": "2026-02-19T17:59:09",
    "ORIGINATOR": "18 SPCS",
    "OBJECT_NAME": "CZ-6A DEB",
    "OBJECT_ID": "2024-140FD",
    "CENTER_NAME": "EARTH",
    "REF_FRAME": "TEME",
    "TIME_SYSTEM": "UTC",
    "MEAN_ELEMENT_THEORY": "SGP4",
    "EPOCH": "2026-02-19T15:17:53.589984",
    "MEAN_MOTION": "14.97267971",
    "ECCENTRICITY": "0.00416956",
    "INCLINATION": "89.0009",
    "RA_OF_ASC_NODE": "283.1217",
    "ARG_OF_PERICENTER": "258.2421",
    "MEAN_ANOMALY": "101.4133",
    "EPHEMERIS_TYPE": "0",
    "CLASSIFICATION_TYPE": "U",
    "NORAD_CAT_ID": "60778",
    "ELEMENT_SET_NO": "999",
    "REV_AT_EPOCH": "8181",
    "BSTAR": "0.00416104170000",
    "MEAN_MOTION_DOT": "0.00049344",
    "MEAN_MOTION_DDOT": "0.0000000000000",
    "SEMIMAJOR_AXIS": "6953.479",
    "PERIOD": "96.175",
    "APOAPSIS": "604.337",
    "PERIAPSIS": "546.351",
    "OBJECT_TYPE": "DEBRIS",
    "RCS_SIZE": "SMALL",
    "COUNTRY_CODE": "PRC",
    "LAUNCH_DATE": "2024-08-06",
    "SITE": "TSC",
    "DECAY_DATE": null,
    "FILE": "5039972",
    "GP_ID": "313181785",
    "TLE_LINE0": "0 CZ-6A DEB",
    "TLE_LINE1": "1 60778U 24140FD  26050.63742581  .00049344  00000-0  41610-2 0  9996",
    "TLE_LINE2": "2 60778  89.0009 283.1217 0041696 258.2421 101.4133 14.97267971 81814"
  },
  {
    "CCSDS_OMM_VERS": "3.0",
    "COMMENT": "GENERATED VIA SPACE-TRACK.ORG API",
    "CREATION_DATE": "2026-02-19T17:59:09",
    "ORIGINATOR": "18 SPCS",
    "OBJECT_NAME": "DELTA 1 DEB",
    "OBJECT_ID": "1973-086DV",
    "CENTER_NAME": "EARTH",
    "REF_FRAME": "TEME",
    "TIME_SYSTEM": "UTC",
    "MEAN_ELEMENT_THEORY": "SGP4",
    "EPOCH": "2026-02-19T15:17:45.416544",
    "MEAN_MOTION": "12.14429870",
    "ECCENTRICITY": "0.01370566",
    "INCLINATION": "102.0130",
    "RA_OF_ASC_NODE": "290.1982",
    "ARG_OF_PERICENTER": "40.5722",
    "MEAN_ANOMALY": "348.5853",
    "EPHEMERIS_TYPE": "0",
    "CLASSIFICATION_TYPE": "U",
    "NORAD_CAT_ID": "7156",
    "ELEMENT_SET_NO": "999",
    "REV_AT_EPOCH": "31822",
    "BSTAR": "-0.00003497529900",
    "MEAN_MOTION_DOT": "-0.00000045",
    "MEAN_MOTION_DDOT": "0.0000000000000",
    "SEMIMAJOR_AXIS": "7995.032",
    "PERIOD": "118.574",
    "APOAPSIS": "1726.474",
    "PERIAPSIS": "1507.320",
    "OBJECT_TYPE": "DEBRIS",
    "RCS_SIZE": "MEDIUM",
    "COUNTRY_CODE": "US",
    "LAUNCH_DATE": "1973-11-06",
    "SITE": "AFWTR",
    "DECAY_DATE": null,
    "FILE": "5039972",
    "GP_ID": "313157311",
    "TLE_LINE0": "0 DELTA 1 DEB",
    "TLE_LINE1": "1 07156U 73086DV  26050.63733121 -.00000045  00000-0 -34975-4 0  9995",
    "TLE_LINE2": "2 07156 102.0130 290.1982 0137057  40.5722 348.5853 12.14429870318222"
  }
]